[{"id":"67328","name":"STARLINK-36489","tle1":"1 67328U 26002Z   26174.98743674  .00017040  00000+0  62713-3 0  9997","tle2":"2 67328  43.0006  85.1398 0002000 284.4115  75.6514 15.27588902 27499"},{"id":"67329","name":"STARLINK-36496","tle1":"1 67329U 26002AA  26175.42971714  .00020303  00000+0  74487-3 0  9993","tle2":"2 67329  42.9995  82.4312 0001790 265.2493  94.8154 15.27598287 27380"},{"id":"67330","name":"STARLINK-36483","tle1":"1 67330U 26002AB  26175.45156203  .00018754  00000+0  68885-3 0  9998","tle2":"2 67330  43.0033  82.6050 0002608 266.0781  93.9773 15.27599508 27560"},{"id":"67331","name":"STARLINK-36494","tle1":"1 67331U 26002AC  26175.43357209  .00015221  00000+0  56126-3 0  9997","tle2":"2 67331  42.9963  82.4641 0001849 264.5200  95.5441 15.27594215 27560"},{"id":"67332","name":"STARLINK-36492","tle1":"1 67332U 26002AD  26175.45927536  .00012467  00000+0  46171-3 0  9994","tle2":"2 67332  43.0016  82.6575 0001464 277.6087  82.4599 15.27586461 27564"},{"id":"67333","name":"STARLINK-36427","tle1":"1 67333U 26002AE  26175.43614278  .00026057  00000+0  95238-3 0  9997","tle2":"2 67333  43.0026  82.4681 0000958 281.7372  78.3372 15.27604112 27468"},{"id":"67334","name":"STARLINK-35343","tle1":"1 67334U 26003A   26175.85991501  .00021087  00000+0  77264-3 0  9999","tle2":"2 67334  43.0026 341.8788 0001834 272.1228  87.9414 15.27621237 25218"},{"id":"67335","name":"STARLINK-36486","tle1":"1 67335U 26003B   26176.16501386  .00009663  00000+0  36010-3 0  9993","tle2":"2 67335  43.0021 339.8653 0001167 268.8775  91.1943 15.27590387 25260"},{"id":"67336","name":"STARLINK-36480","tle1":"1 67336U 26003C   26175.86764114  .00036308  00000+0  13213-2 0  9995","tle2":"2 67336  43.0041 341.9393 0002411 277.7011  82.3567 15.27606945 25210"},{"id":"67337","name":"STARLINK-36410","tle1":"1 67337U 26003D   26175.88562519  .00017899  00000+0  65797-3 0  9992","tle2":"2 67337  42.9999 342.0773 0001348 269.8277  90.2420 15.27599959 25211"},{"id":"67338","name":"STARLINK-36413","tle1":"1 67338U 26003E   26175.87791580  .00035246  00000+0  12830-2 0  9999","tle2":"2 67338  42.9998 342.0194 0001673 273.1159  86.9501 15.27610238 25212"},{"id":"67339","name":"STARLINK-36451","tle1":"1 67339U 26003F   26175.86377834  .00024137  00000+0  88319-3 0  9994","tle2":"2 67339  43.0024 341.9075 0001975 257.9291 102.1340 15.27600495 25219"},{"id":"67340","name":"STARLINK-36339","tle1":"1 67340U 26003G   26176.18300473  .00011835  00000+0  43871-3 0  9992","tle2":"2 67340  43.0031 340.0036 0001132 285.3878  74.6849 15.27594638 25260"},{"id":"67341","name":"STARLINK-36453","tle1":"1 67341U 26003H   26176.17914882  .00013454  00000+0  49739-3 0  9995","tle2":"2 67341  43.0013 339.9735 0001732 268.7130  91.3523 15.27588975 25268"},{"id":"67342","name":"STARLINK-36432","tle1":"1 67342U 26003J   26176.15729566  .00011796  00000+0  43715-3 0  9992","tle2":"2 67342  43.0009 339.8037 0000418 290.1070  69.9736 15.27606505 25267"},{"id":"67343","name":"STARLINK-36458","tle1":"1 67343U 26003K   26176.17272202  .00023786  00000+0  87151-3 0  9999","tle2":"2 67343  43.0006 339.9231 0000713 277.3381  82.7390 15.27564915 25269"},{"id":"67344","name":"STARLINK-36422","tle1":"1 67344U 26003L   26175.83422769  .00019855  00000+0  72883-3 0  9995","tle2":"2 67344  43.0011 341.6815 0001417 262.1535  97.9156 15.27592627 25213"},{"id":"67345","name":"STARLINK-35676","tle1":"1 67345U 26003M   26176.16886352  .00011984  00000+0  44413-3 0  9998","tle2":"2 67345  43.0048 339.8917 0001615 264.9907  95.0760 15.27593961 25266"},{"id":"67346","name":"STARLINK-36472","tle1":"1 67346U 26003N   26175.87534682  .00031907  00000+0  11629-2 0  9991","tle2":"2 67346  43.0011 341.9966 0001738 272.6873  87.3779 15.27609539 25206"},{"id":"67347","name":"STARLINK-36420","tle1":"1 67347U 26003P   26175.86506699  .00032262  00000+0  11759-2 0  9997","tle2":"2 67347  43.0034 341.9173 0002023 274.9378  85.1242 15.27603817 25210"},{"id":"67348","name":"STARLINK-36467","tle1":"1 67348U 26003Q   26175.86892315  .00035508  00000+0  12924-2 0  9992","tle2":"2 67348  43.0028 341.9447 0002019 275.6933  84.3688 15.27610936 25213"},{"id":"67349","name":"STARLINK-36457","tle1":"1 67349U 26003R   26176.18043452  .00012803  00000+0  47389-3 0  9996","tle2":"2 67349  43.0043 339.9825 0001482 288.0007  72.0683 15.27584724 25260"},{"id":"67350","name":"STARLINK-36475","tle1":"1 67350U 26003S   26176.16628732  .00046326  00000+0  16796-2 0  9990","tle2":"2 67350  43.0030 339.8732 0001260 261.5142  98.5567 15.27635627 25267"},{"id":"67351","name":"STARLINK-36478","tle1":"1 67351U 26003T   26176.25002315  .00007354  00000+0  27648-3 0  9991","tle2":"2 67351  43.0024 339.2953 0001294 272.5418 230.9416 15.27581247  5873"},{"id":"67352","name":"STARLINK-36479","tle1":"1 67352U 26003U   26175.82523100  .00014900  00000+0  54968-3 0  9994","tle2":"2 67352  43.0030 341.6123 0001222 274.4130  85.6582 15.27592091 25218"},{"id":"67353","name":"STARLINK-36474","tle1":"1 67353U 26003V   26176.14845776  .00018283  00000+0  67188-3 0  9993","tle2":"2 67353  42.9999 340.6045 0001052 280.2386  79.8347 15.27598701 25254"},{"id":"67354","name":"STARLINK-36448","tle1":"1 67354U 26003W   26175.86121312  .00019057  00000+0  69999-3 0  9997","tle2":"2 67354  43.0027 341.8830 0001919 282.3205  77.7432 15.27591137 25213"},{"id":"67355","name":"STARLINK-36477","tle1":"1 67355U 26003X   26175.88305690  .00023591  00000+0  86376-3 0  9999","tle2":"2 67355  42.9996 342.0555 0001343 272.3846  87.6851 15.27591116 25217"},{"id":"67356","name":"STARLINK-36429","tle1":"1 67356U 26003Y   26175.87920003  .00014249  00000+0  52606-3 0  9999","tle2":"2 67356  43.0003 342.0241 0001209 265.9586  94.1127 15.27595615 25218"},{"id":"67357","name":"STARLINK-36456","tle1":"1 67357U 26003Z   26176.18428805  .00019492  00000+0  71550-3 0  9992","tle2":"2 67357  43.0032 340.0084 0001355 292.6058  67.4650 15.27601235 25262"}]