OBJECT_NAME,OBJECT_ID,EPOCH,MEAN_MOTION,ECCENTRICITY,INCLINATION,RA_OF_ASC_NODE,ARG_OF_PERICENTER,MEAN_ANOMALY,EPHEMERIS_TYPE,CLASSIFICATION_TYPE,NORAD_CAT_ID,ELEMENT_SET_NO,REV_AT_EPOCH,BSTAR,MEAN_MOTION_DOT,MEAN_MOTION_DDOT
STARLINK-36489,2026-002Z,2026-06-23T23:41:54.534336,15.27588902,.00020009,43.0006,85.1398,284.4115,75.6514,0,U,67328,999,2749,.62713249E-3,.1704E-3,0
STARLINK-36496,2026-002AA,2026-06-24T10:18:47.560896,15.27598287,.00017904,42.9995,82.4312,265.2493,94.8154,0,U,67329,999,2738,.74487403E-3,.20303E-3,0
STARLINK-36483,2026-002AB,2026-06-24T10:50:14.959392,15.27599508,.00026085,43.0033,82.6050,266.0781,93.9773,0,U,67330,999,2756,.6888466E-3,.18754E-3,0
STARLINK-36494,2026-002AC,2026-06-24T10:24:20.628576,15.27594215,.0001849,42.9963,82.4641,264.5200,95.5441,0,U,67331,999,2756,.56125926E-3,.15221E-3,0
STARLINK-36492,2026-002AD,2026-06-24T11:01:21.391104,15.27586461,.00014645,43.0016,82.6575,277.6087,82.4599,0,U,67332,999,2756,.4617094E-3,.12467E-3,0
STARLINK-36427,2026-002AE,2026-06-24T10:28:02.736192,15.27604112,.00009585,43.0026,82.4681,281.7372,78.3372,0,U,67333,999,2746,.95238421E-3,.26057E-3,0
STARLINK-35343,2026-003A,2026-06-24T20:38:16.656864,15.27621237,.00018349,43.0026,341.8788,272.1228,87.9414,0,U,67334,999,2521,.77264173E-3,.21087E-3,0
STARLINK-36486,2026-003B,2026-06-25T03:57:37.197504,15.27590387,.00011676,43.0021,339.8653,268.8775,91.1943,0,U,67335,999,2526,.36009624E-3,.9663E-4,0
STARLINK-36480,2026-003C,2026-06-24T20:49:24.194496,15.27606945,.00024119,43.0041,341.9393,277.7011,82.3567,0,U,67336,999,2521,.13213114E-2,.36308E-3,0
STARLINK-36410,2026-003D,2026-06-24T21:15:18.016416,15.27599959,.00013485,42.9999,342.0773,269.8277,90.2420,0,U,67337,999,2521,.65796847E-3,.17899E-3,0
STARLINK-36413,2026-003E,2026-06-24T21:04:11.925120,15.27610238,.00016739,42.9998,342.0194,273.1159,86.9501,0,U,67338,999,2521,.12830331E-2,.35246E-3,0
STARLINK-36451,2026-003F,2026-06-24T20:43:50.448576,15.27600495,.00019757,43.0024,341.9075,257.9291,102.1340,0,U,67339,999,2521,.88319201E-3,.24137E-3,0
STARLINK-36339,2026-003G,2026-06-25T04:23:31.608672,15.27594638,.00011325,43.0031,340.0036,285.3878,74.6849,0,U,67340,999,2526,.43870907E-3,.11835E-3,0
STARLINK-36453,2026-003H,2026-06-25T04:17:58.458048,15.27588975,.00017324,43.0013,339.9735,268.7130,91.3523,0,U,67341,999,2526,.49739279E-3,.13454E-3,0
STARLINK-36432,2026-003J,2026-06-25T03:46:30.345024,15.27606505,.00004182,43.0009,339.8037,290.1070,69.9736,0,U,67342,999,2526,.43715345E-3,.11796E-3,0
STARLINK-36458,2026-003K,2026-06-25T04:08:43.182528,15.27564915,.0000713,43.0006,339.9231,277.3381,82.7390,0,U,67343,999,2526,.87150727E-3,.23786E-3,0
STARLINK-36422,2026-003L,2026-06-24T20:01:17.272416,15.27592627,.00014176,43.0011,341.6815,262.1535,97.9156,0,U,67344,999,2521,.72882792E-3,.19855E-3,0
STARLINK-35676,2026-003M,2026-06-25T04:03:09.808128,15.27593961,.00016159,43.0048,339.8917,264.9907,95.0760,0,U,67345,999,2526,.44412853E-3,.11984E-3,0
STARLINK-36472,2026-003N,2026-06-24T21:00:29.965248,15.27609539,.00017382,43.0011,341.9966,272.6873,87.3779,0,U,67346,999,2520,.11629413E-2,.31907E-3,0
STARLINK-36420,2026-003P,2026-06-24T20:45:41.787936,15.27603817,.00020232,43.0034,341.9173,274.9378,85.1242,0,U,67347,999,2521,.11759163E-2,.32262E-3,0
STARLINK-36467,2026-003Q,2026-06-24T20:51:14.960160,15.27610936,.00020192,43.0028,341.9447,275.6933,84.3688,0,U,67348,999,2521,.1292419E-2,.35508E-3,0
STARLINK-36457,2026-003R,2026-06-25T04:19:49.542528,15.27584724,.00014823,43.0043,339.9825,288.0007,72.0683,0,U,67349,999,2526,.47389028E-3,.12803E-3,0
STARLINK-36475,2026-003S,2026-06-25T03:59:27.224448,15.27635627,.00012608,43.0030,339.8732,261.5142,98.5567,0,U,67350,999,2526,.16795793E-2,.46326E-3,0
STARLINK-36478,2026-003T,2026-06-25T06:00:02.000160,15.27581247,.00012942,43.0024,339.2953,272.5418,230.9416,0,U,67351,999,587,.27647641E-3,.7354E-4,0
STARLINK-36479,2026-003U,2026-06-24T19:48:19.958400,15.27592091,.00012228,43.0030,341.6123,274.4130,85.6582,0,U,67352,999,2521,.54968278E-3,.149E-3,0
STARLINK-36474,2026-003V,2026-06-25T03:33:46.750464,15.27598701,.00010529,42.9999,340.6045,280.2386,79.8347,0,U,67353,999,2525,.67187822E-3,.18283E-3,0
STARLINK-36448,2026-003W,2026-06-24T20:40:08.813568,15.27591137,.00019194,43.0027,341.8830,282.3205,77.7432,0,U,67354,999,2521,.6999883E-3,.19057E-3,0
STARLINK-36477,2026-003X,2026-06-24T21:11:36.116160,15.27591116,.00013433,42.9996,342.0555,272.3846,87.6851,0,U,67355,999,2521,.86375573E-3,.23591E-3,0
STARLINK-36429,2026-003Y,2026-06-24T21:06:02.882592,15.27595615,.00012098,43.0003,342.0241,265.9586,94.1127,0,U,67356,999,2521,.52605753E-3,.14249E-3,0
STARLINK-36456,2026-003Z,2026-06-25T04:25:22.487520,15.27601235,.00013556,43.0032,340.0084,292.6058,67.4650,0,U,67357,999,2526,.7155027E-3,.19492E-3,0
